[{"OBJECT_NAME":"STARLINK-33997","OBJECT_ID":"2025-098C","EPOCH":"2026-03-09T22:20:46.078368","MEAN_MOTION":14.96551413,"ECCENTRICITY":0.00068477,"INCLINATION":70.0004,"RA_OF_ASC_NODE":274.0384,"ARG_OF_PERICENTER":77.5305,"MEAN_ANOMALY":282.6619,"EPHEMERIS_TYPE":0,"CLASSIFICATION_TYPE":"U","NORAD_CAT_ID":63928,"ELEMENT_SET_NO":999,"REV_AT_EPOCH":4660,"BSTAR":-0.062237161,"MEAN_MOTION_DOT":-0.00663337,"MEAN_MOTION_DDOT":0},{"OBJECT_NAME":"LEMUR-2-MARIO-SOUSA","OBJECT_ID":"2026-004C","EPOCH":"2026-03-09T22:28:14.080512","MEAN_MOTION":14.87588153,"ECCENTRICITY":0.00102095,"INCLINATION":97.8003,"RA_OF_ASC_NODE":69.0866,"ARG_OF_PERICENTER":105.1943,"MEAN_ANOMALY":255.0403,"EPHEMERIS_TYPE":0,"CLASSIFICATION_TYPE":"U","NORAD_CAT_ID":67365,"ELEMENT_SET_NO":999,"REV_AT_EPOCH":853,"BSTAR":0.00075901318,"MEAN_MOTION_DOT":6.852e-5,"MEAN_MOTION_DDOT":0}]
